OBJECT_NAME,OBJECT_ID,EPOCH,MEAN_MOTION,ECCENTRICITY,INCLINATION,RA_OF_ASC_NODE,ARG_OF_PERICENTER,MEAN_ANOMALY,EPHEMERIS_TYPE,CLASSIFICATION_TYPE,NORAD_CAT_ID,ELEMENT_SET_NO,REV_AT_EPOCH,BSTAR,MEAN_MOTION_DOT,MEAN_MOTION_DDOT
STARLINK-11492 [DTC],2024-231G,2026-06-29T12:39:19.001664,15.69707846,.0001407,53.1568,270.1934,41.1422,318.9702,0,U,62224,999,9097,.97298E-3,.118981E-2,0
STARLINK-11471 [DTC],2024-231H,2026-06-29T13:14:29.363136,15.69723068,.0001715,53.1576,269.6202,37.0161,323.0975,0,U,62225,999,9098,.12653E-2,.155699E-2,0
STARLINK-11475 [DTC],2024-231J,2026-06-29T13:21:32.932224,15.69705042,.0001237,53.1570,269.6407,55.0611,305.0523,0,U,62226,999,9098,.97904E-3,.119721E-2,0
STARLINK-11469 [DTC],2024-231K,2026-06-29T12:03:59.582880,15.69701464,.0001308,53.1565,270.0187,45.2695,314.8430,0,U,62227,999,9097,.11589E-2,.142185E-2,0
STARLINK-11476 [DTC],2024-231L,2026-06-29T13:00:21.530304,15.69702027,.0001763,53.1574,269.5422,36.1549,323.9588,0,U,62228,999,9099,.11264E-2,.13812E-2,0
STARLINK-11485 [DTC],2024-231M,2026-06-29T11:56:55.838400,15.69710616,.0001649,53.1572,269.9869,33.6733,326.4389,0,U,62229,999,9097,.14547E-2,.179511E-2,0
STARLINK-11481 [DTC],2024-231N,2026-06-29T12:53:26.711808,15.69705676,.000195,53.1576,270.2423,29.3953,330.7174,0,U,62230,999,9097,.12466E-2,.153231E-2,0
STARLINK-32650,2024-231P,2026-06-28T22:45:41.510304,15.31706930,.00006723,53.1602,62.7737,35.5094,324.5952,0,U,62231,999,8880,.86760408E-3,.2666E-3,0
STARLINK-32636,2024-231Q,2026-06-28T22:21:39.788928,15.30202081,.00014416,53.1611,62.6702,93.3183,266.7983,0,U,62232,999,8880,.27467511E-3,.7785E-4,0
STARLINK-32643,2024-231R,2026-06-28T23:01:18.888096,15.31716358,.00010816,53.1607,49.3503,85.2172,274.8953,0,U,62233,999,8898,.35271641E-3,.10601E-3,0
STARLINK-32652,2024-231S,2026-06-29T12:00:02.998944,15.31682576,.0000819,53.1603,60.2508,102.5889,35.2426,0,U,62234,999,585,.15575E-2,.48252E-3,0
STARLINK-32631,2024-231T,2026-06-28T22:34:25.972896,15.31714677,.00011563,53.1588,49.2377,93.8885,266.2249,0,U,62235,999,8898,.75818082E-3,.23246E-3,0
STARLINK-32641,2024-231U,2026-06-28T22:58:50.497824,15.30214157,.00015897,53.1605,50.0455,53.3141,306.8005,0,U,62236,999,8897,-.14979148E-3,-.4795E-4,0
QIANFAN-37,2024-232B,2026-06-29T13:20:51.398016,13.51010216,.0001528,89.0064,21.3425,98.3028,261.8297,0,U,62238,999,12601,.81401E-4,.65E-6,0
QIANFAN-38,2024-232C,2026-06-29T12:09:44.598816,13.51006942,.0014077,89.0071,21.2768,349.2526,10.8323,0,U,62239,999,12606,.68029E-4,.56E-6,0
QIANFAN-39,2024-232D,2026-06-29T12:05:57.941376,14.25529189,.0017502,89.0055,14.6635,140.9551,219.2909,0,U,62240,999,12970,.57487E-4,.151E-5,0
QIANFAN-40,2024-232E,2026-06-29T12:57:06.509088,13.51008686,.001342,89.0098,20.9135,357.8475,2.2616,0,U,62241,999,12643,.57942E-4,.49E-6,0
QIANFAN-41,2024-232F,2026-06-29T13:08:59.024832,13.51011262,.0013348,89.0069,21.2205,345.4498,14.6267,0,U,62242,999,12609,.84671E-4,.67E-6,0
QIANFAN-42,2024-232G,2026-06-29T13:24:17.580384,14.24617825,.0016129,89.0053,14.7339,146.5278,213.6937,0,U,62243,999,12967,.56489E-4,.146E-5,0
QIANFAN-43,2024-232H,2026-06-29T13:03:02.922048,13.51010856,.0015052,89.0073,21.2950,349.9559,10.1289,0,U,62244,999,9470,.64813E-4,.54E-6,0
QIANFAN-44,2024-232J,2026-06-29T12:45:13.410144,13.51012826,.0013193,89.0072,21.1038,348.0167,12.0668,0,U,62245,999,12617,.63241E-4,.53E-6,0
QIANFAN-45,2024-232K,2026-06-29T11:57:54.994752,13.51010277,.0013832,89.0075,21.2607,347.3002,12.7799,0,U,62246,999,12609,.543E-4,.47E-6,0
QIANFAN-46,2024-232L,2026-06-29T12:33:25.985088,13.51011011,.0014088,89.0071,21.3191,352.8679,7.2270,0,U,62247,999,12605,.41089E-4,.38E-6,0
QIANFAN-47,2024-232M,2026-06-29T12:39:22.139712,13.51010134,.0014471,89.0067,21.2436,351.7574,8.3338,0,U,62248,999,12608,.6596E-4,.55E-6,0
QIANFAN-48,2024-232N,2026-06-29T13:32:33.832608,13.51014711,.0016808,89.0071,21.2495,353.1799,6.9121,0,U,62249,999,12609,.65133E-4,.54E-6,0
QIANFAN-49,2024-232P,2026-06-29T13:14:50.303904,13.51013240,.0013704,89.0070,21.2616,349.1662,10.9192,0,U,62250,999,9468,.78995E-4,.63E-6,0
QIANFAN-50,2024-232Q,2026-06-29T12:03:50.026176,13.51010014,.0015411,89.0076,21.2856,349.8020,10.2816,0,U,62251,999,9470,.61394E-4,.52E-6,0
QIANFAN-51,2024-232R,2026-06-29T13:26:46.743936,13.51006786,.0013054,89.0069,21.2614,354.8514,5.2501,0,U,62252,999,9470,.60579E-4,.51E-6,0
QIANFAN-52,2024-232S,2026-06-29T12:21:31.402656,13.51012602,.0014751,89.0066,21.1319,345.8295,14.2441,0,U,62253,999,9478,.1077E-3,.81E-6,0
QIANFAN-53,2024-232T,2026-06-29T13:38:34.389312,13.51009086,.0013688,89.0073,21.2460,347.4641,12.6168,0,U,62254,999,9475,.4665E-4,.42E-6,0
QIANFAN-54,2024-232U,2026-06-29T12:51:08.932320,13.51012999,.0003522,89.0064,20.9103,54.6702,305.4778,0,U,62255,999,12625,.44804E-4,.41E-6,0
PROBA-3 CSC,2024-233A,2026-06-24T16:17:53.937600,1.22075244,.80011998,59.7069,96.8546,205.7699,68.3313,0,U,62256,999,691,.10196764E-1,-.41E-5,0
PROBA-3 OSC,2024-233C,2026-06-24T16:17:35.177568,1.22075283,.80017546,59.7019,96.8619,205.7944,68.2500,0,U,62258,999,690,0,-.444E-5,0
SXM-9,2024-234A,2026-06-28T20:36:35.078976,1.00276452,.00049605,0.0154,333.9696,344.4412,182.5330,0,U,62259,999,569,0,-.194E-5,0
SENTINEL-1C,2024-235A,2026-06-29T13:03:22.559040,14.59197421,.0001364,98.1821,187.6748,88.8437,271.2919,0,U,62261,999,8321,.8429E-5,-.6E-7,0
STARLINK-32632,2024-231V,2026-06-28T22:38:58.898400,15.31727496,.00011273,53.1603,62.7407,75.6611,284.4516,0,U,62262,999,8880,.10086618E-2,.31092E-3,0
STARLINK-11496 [DTC],2024-237A,2026-06-29T05:56:16.432224,15.71026426,.0002161,43.0001,104.5163,279.1711,80.8912,0,U,62267,999,9059,.12079E-2,.158777E-2,0
STARLINK-11501 [DTC],2024-237B,2026-06-28T23:04:10.873344,15.70879964,.00016904,43.0004,105.7923,255.3129,104.7551,0,U,62268,999,9050,.11421741E-2,.149015E-2,0
STARLINK-11491 [DTC],2024-237C,2026-06-28T22:56:31.924320,15.70879518,.00014756,42.9993,105.7480,249.2999,110.7710,0,U,62269,999,9055,.65225562E-3,.84237E-3,0
STARLINK-11479 [DTC],2024-237D,2026-06-28T20:16:20.841888,15.70933940,.00006239,42.9986,106.6421,217.9557,142.1267,0,U,62270,999,9053,.15672762E-2,.206546E-2,0
STARLINK-11489 [DTC],2024-237E,2026-06-29T06:19:13.725120,15.70981901,.000178,42.9995,104.6424,247.9138,112.1540,0,U,62271,999,9059,.1605E-2,.212095E-2,0
STARLINK-11494 [DTC],2024-237F,2026-06-27T23:17:27.211776,15.70863680,.00036176,43.0005,112.1360,283.8259,76.2206,0,U,62272,999,9034,.15291948E-2,.200815E-2,0
STARLINK-11333 [DTC],2024-237G,2026-06-28T22:26:08.277792,15.70870474,.00037756,43.0011,106.4728,283.3577,76.6870,0,U,62273,999,9054,.10240049E-2,.133274E-2,0
STARLINK-11504 [DTC],2024-237H,2026-06-28T23:34:45.795072,15.70853218,.00019554,43.0019,105.9603,263.5513,96.5132,0,U,62274,999,9050,.11311496E-2,.147379E-2,0
STARLINK-11495 [DTC],2024-237J,2026-06-27T23:55:40.936512,15.70826349,.00029897,43.0007,112.3505,290.8795,69.1752,0,U,62275,999,9034,.12551717E-2,.163742E-2,0
STARLINK-11498 [DTC],2024-237K,2026-06-28T20:08:42.139968,15.70894577,.00014221,42.9995,106.5977,256.1879,103.8831,0,U,62276,999,9053,.10935902E-2,.142633E-2,0
STARLINK-11484 [DTC],2024-237L,2026-06-28T20:23:59.667360,15.70856889,.00031943,43.0024,106.6813,276.5027,83.5477,0,U,62277,999,9053,.10796177E-2,.140567E-2,0
STARLINK-11487 [DTC],2024-237M,2026-06-28T22:33:46.752480,15.70910202,.00029219,42.9998,106.5125,289.4276,70.6276,0,U,62278,999,9054,.73318386E-3,.95003E-3,0
STARLINK-11499 [DTC],2024-237N,2026-06-28T19:47:15.779616,15.70958041,.00026629,42.9945,107.3643,159.5328,200.5646,0,U,62279,999,9045,.1172724E-2,.153613E-2,0
STARLINK-33548,2024-237P,2026-06-28T19:43:21.114624,15.27588122,.00009855,42.9997,297.8894,255.0034,105.0709,0,U,62280,999,8831,.32854639E-3,.8792E-4,0
STARLINK-33544,2024-237Q,2026-06-28T19:26:40.066944,15.27605052,.00004454,43.0015,309.0498,118.3165,241.7732,0,U,62281,999,8818,.81297978E-3,.22194E-3,0
STARLINK-33560,2024-237R,2026-06-28T17:26:37.578912,15.27549449,.00022009,43.0027,309.2781,265.9372,94.1229,0,U,62282,999,8808,.52921435E-3,.14316E-3,0
STARLINK-33547,2024-237S,2026-06-28T14:55:19.748640,15.27593447,.00007007,43.0026,298.9641,293.8027,66.2751,0,U,62283,999,8828,.44057757E-3,.11886E-3,0
STARLINK-33563,2024-237T,2026-06-28T17:35:51.199008,15.27608710,.00015507,43.0019,309.3264,285.0866,74.9814,0,U,62284,999,8817,.88293687E-3,.24135E-3,0
STARLINK-33550,2024-237U,2026-06-28T18:55:12.403200,15.27596698,.00009779,43.0017,308.8798,293.1762,66.8986,0,U,62285,999,8818,.84524417E-3,.23082E-3,0
STARLINK-33564,2024-237V,2026-06-28T17:41:24.305568,15.27598787,.00011768,43.0039,309.3589,275.1099,84.9618,0,U,62286,999,8817,.72838368E-3,.19847E-3,0
STARLINK-33546,2024-237W,2026-06-28T17:30:18.004320,15.27603141,.00017346,43.0007,309.2958,263.8175,96.2479,0,U,62287,999,8808,.97642115E-3,.26724E-3,0
STARLINK-33565,2024-237X,2026-06-28T17:21:04.890528,15.27583761,.00020214,43.0070,297.9981,262.0209,98.0413,0,U,62288,999,8830,.28370809E-3,.7554E-4,0
STARLINK-33549,2024-237Y,2026-06-28T17:46:57.774144,15.27586354,.00011007,43.0013,309.3876,273.9057,86.1669,0,U,62289,999,8817,.38319167E-3,.10299E-3,0
GJZ 01,2024-238A,2026-06-29T13:24:46.867392,13.75222384,.0012777,59.9128,249.2123,256.8129,103.1453,0,U,62290,999,7730,.10109E-3,-.22E-6,0
GJZ 02,2024-238B,2026-06-29T13:25:45.558048,13.75207001,.0006708,59.9158,213.3338,91.0439,269.1337,0,U,62291,999,7798,.80546E-4,-.42E-6,0
GJZ 03,2024-238C,2026-06-29T13:24:18.459936,13.75208837,.0019449,59.9121,233.5701,10.5094,349.6317,0,U,62292,999,7759,.81023E-4,-.41E-6,0
GJZ 04,2024-238D,2026-06-29T13:30:36.692352,13.75201550,.0015404,59.9122,233.5957,22.3235,337.8440,0,U,62293,999,7761,.82202E-4,-.4E-6,0
GJZ 05,2024-238E,2026-06-29T13:27:42.806304,13.75193065,.0016995,59.9106,233.5251,20.8395,339.3302,0,U,62294,999,7761,.60004E-4,-.61E-6,0
STARLINK-32648,2024-239A,2026-06-28T22:41:27.855456,15.34402215,.00012246,53.1603,23.9492,88.0418,272.0725,0,U,62301,999,8660,.34101709E-3,.11164E-3,0
